0 COSMOS 832
1 08896U 76054H   13282.49407917  .00000011  00000-0  19689-3 0  4140
2 08896 073.9990 264.6204 0025280 288.1863 177.1633 12.41261996691114
0 COSMOS 832
1 08896U 76054H   13283.70397351 -.00000012  00000-0  30164-4 0  4150
2 08896 073.9990 263.0356 0025283 286.4313 183.5977 12.41262274691267
0 COSMOS 832
1 08896U 76054H   13286.11314192 -.00000037  00000-0 -15330-3 0  4177
2 08896 073.9994 259.8797 0025274 282.9821 148.9675 12.41262520691565
0 COSMOS 832
1 08896U 76054H   13287.42474847 -.00000044  00000-0 -20611-3 0  4183
2 08896 073.9997 258.1616 0025278 281.1031 249.8836 12.41262534691721
0 COSMOS 832
1 08896U 76054H   13289.09496426 -.00000025  00000-0 -68484-4 0  4196
2 08896 074.0001 255.9738 0025261 278.7238 153.2339 12.41262281691930
0 COSMOS 832
1 08896U 76054H   13290.40430031 -.00000016  00000-0 -34258-6 0  4209
2 08896 074.0003 254.2588 0025256 276.8369 244.0153 12.41262149692099
0 COSMOS 832
1 08896U 76054H   13292.07660954  .00000009  00000-0  18006-3 0  4214
2 08896 074.0005 252.0686 0025245 274.4342 156.7390 12.41261961692306
0 COSMOS 832
1 08896U 76054H   13293.38636640  .00000011  00000-0  19696-3 0  4224
2 08896 074.0006 250.3532 0025243 272.5500 249.3959 12.41262045692462
0 COSMOS 832
1 08896U 76054H   13294.80523936  .00000017  00000-0  23825-3 0  4231
2 08896 074.0006 248.4950 0025224 270.5245 109.6237 12.41262077692649
0 COSMOS 832
1 08896U 76054H   13295.86206286 -.00000004  00000-0  89832-4 0  4243
2 08896 074.0006 247.1109 0025226 268.9728 152.0770 12.41262329692778
